[{"OBJECT_NAME":"STARLINK-5894","OBJECT_ID":"2023-037BD","EPOCH":"2026-03-09T22:29:02.552640","MEAN_MOTION":14.98326384,"ECCENTRICITY":0.00029519,"INCLINATION":69.9983,"RA_OF_ASC_NODE":263.6926,"ARG_OF_PERICENTER":268.7234,"MEAN_ANOMALY":91.3586,"EPHEMERIS_TYPE":0,"CLASSIFICATION_TYPE":"U","NORAD_CAT_ID":55965,"ELEMENT_SET_NO":999,"REV_AT_EPOCH":16451,"BSTAR":-7.9674271e-5,"MEAN_MOTION_DOT":-1.043e-5,"MEAN_MOTION_DDOT":0},{"OBJECT_NAME":"SATELIOT_3","OBJECT_ID":"2024-149CN","EPOCH":"2026-03-09T19:09:09.165600","MEAN_MOTION":14.97601684,"ECCENTRICITY":0.00058308,"INCLINATION":97.6866,"RA_OF_ASC_NODE":147.0596,"ARG_OF_PERICENTER":63.3535,"MEAN_ANOMALY":296.8284,"EPHEMERIS_TYPE":0,"CLASSIFICATION_TYPE":"U","NORAD_CAT_ID":60552,"ELEMENT_SET_NO":999,"REV_AT_EPOCH":8520,"BSTAR":0.00025002978,"MEAN_MOTION_DOT":2.865e-5,"MEAN_MOTION_DDOT":0}]
